FORMOSAT 7-2            
1 44351U 19036N   26068.46036694  .00003823  00000+0  30629-3 0  9994
2 44351  23.9982 100.9036 0000971  99.0828 260.9782 14.96019264368636
STARLINK-32551          
1 62166U 24225D   26068.66880724  .00005019  00000+0  42815-3 0  9996
2 62166  70.0041 164.4454 0002664 277.7203  82.3654 14.98326828 69878
